NORAD_CAT_ID,OBJECT_NAME,OBJECT_TYPE,EPOCH,MEAN_MOTION,ECCENTRICITY,INCLINATION,RA_OF_ASC_NODE,ARG_OF_PERICENTER,MEAN_ANOMALY,BSTAR,MEAN_MOTION_DOT,MEAN_MOTION_DDOT,TLE_LINE0,TLE_LINE1,TLE_LINE2,SEMIMAJOR_AXIS,PERIOD,APOGEE,PERIGEE,DECAYED
54079.0,STARLINK-5175,PAYLOAD,2023-06-02 11:41:06,15.08839938,0.0001124,53.2164,193.8112,86.6789,273.4332,4.7922e-05,4.75e-06,0.0,0 STARLINK-5175,1 54079U 22136AE  23153.48687931  .00000475  00000-0  47922-4 0  9993,2 54079  53.2164 193.8112 0001124  86.6789 273.4332 15.08839938 34808,6917.881,95.438,540.523,538.968,0.0
54079.0,STARLINK-5175,PAYLOAD,2023-06-03 11:31:53,15.08837665,0.0001097,53.2161,189.35,86.7456,273.3662,5.1051e-05,5.25e-06,0.0,0 STARLINK-5175,1 54079U 22136AE  23154.48048238  .00000525  00000-0  51051-4 0  9999,2 54079  53.2161 189.3500 0001097  86.7456 273.3662 15.08837665 34470,6917.888,95.438,540.511,538.994,0.0
54079.0,STARLINK-5175,PAYLOAD,2023-06-03 19:28:49,15.0883725,0.00011,53.2162,187.8634,86.7779,273.3339,5.1681e-05,5.35e-06,0.0,0 STARLINK-5175,1 54079U 22136AE  23154.81168318  .00000535  00000-0  51681-4 0  9998,2 54079  53.2162 187.8634 0001100  86.7779 273.3339 15.08837250 34522,6917.889,95.438,540.515,538.993,0.0
54079.0,STARLINK-5175,PAYLOAD,2023-06-04 11:22:40,15.08840405,0.0001041,53.2156,184.8895,87.3871,272.7241,4.1642e-05,3.75e-06,0.0,0 STARLINK-5175,1 54079U 22136AE  23155.47408163  .00000375  00000-0  41642-4 0  9994,2 54079  53.2156 184.8895 0001041  87.3871 272.7241 15.08840405 34627,6917.879,95.438,540.464,539.024,0.0
54079.0,STARLINK-5175,PAYLOAD,2023-06-04 19:19:36,15.08837764,0.0001036,53.2155,183.4022,87.4953,272.6158,2.2556e-05,7.1e-07,0.0,0 STARLINK-5175,1 54079U 22136AE  23155.80528386  .00000071  00000-0  22556-4 0  9997,2 54079  53.2155 183.4022 0001036  87.4953 272.6158 15.08837764 34674,6917.887,95.438,540.469,539.036,0.0
54079.0,STARLINK-5175,PAYLOAD,2023-06-05 01:41:09,15.08837924,0.0001006,53.2155,182.2126,87.6076,272.5032,3.3117e-05,2.39e-06,0.0,0 STARLINK-5175,1 54079U 22136AE  23156.07024376  .00000239  00000-0  33117-4 0  9998,2 54079  53.2155 182.2126 0001006  87.6076 272.5032 15.08837924 35197,6917.887,95.438,540.448,539.056,0.0
54079.0,STARLINK-5175,PAYLOAD,2023-06-05 11:13:27,15.08839584,0.0001006,53.2155,180.4286,86.1928,273.918,4.1324e-05,3.7e-06,0.0,0 STARLINK-5175,1 54079U 22136AE  23156.46768276  .00000370  00000-0  41324-4 0  9990,2 54079  53.2155 180.4286 0001006  86.1928 273.9180 15.08839584 34770,6917.882,95.438,540.443,539.051,0.0
54079.0,STARLINK-5175,PAYLOAD,2023-06-06 07:53:28,15.08842497,9.97e-05,53.2153,176.5631,82.3366,277.7739,5.2493e-05,5.48e-06,0.0,0 STARLINK-5175,1 54079U 22136AE  23157.32880032  .00000548  00000-0  52493-4 0  9997,2 54079  53.2153 176.5631 0000997  82.3366 277.7739 15.08842497 35387,6917.873,95.437,540.427,539.048,0.0
54079.0,STARLINK-5175,PAYLOAD,2023-06-06 11:04:14,15.08843161,0.0001001,53.2154,175.9685,81.3539,278.7567,5.6327e-05,6.09e-06,0.0,0 STARLINK-5175,1 54079U 22136AE  23157.46127962  .00000609  00000-0  56327-4 0  9996,2 54079  53.2154 175.9685 0001001  81.3539 278.7567 15.08843161 34926,6917.871,95.437,540.428,539.043,0.0
54079.0,STARLINK-5175,PAYLOAD,2023-06-07 10:55:01,15.08840399,0.0001018,53.2154,171.5083,79.3979,280.7128,4.6417e-05,4.51e-06,0.0,0 STARLINK-5175,1 54079U 22136AE  23158.45488156  .00000451  00000-0  46417-4 0  9995,2 54079  53.2154 171.5083 0001018  79.3979 280.7128 15.08840399 35076,6917.879,95.438,540.448,539.04,0.0
54079.0,STARLINK-5175,PAYLOAD,2023-06-08 07:35:02,15.08837749,0.0001096,53.2161,167.6438,89.0995,271.0123,-4.9289e-07,-2.96e-06,0.0,0 STARLINK-5175,1 54079U 22136AE  23159.31600513 -.00000296  00000-0 -49289-6 0  9995,2 54079  53.2161 167.6438 0001096  89.0995 271.0123 15.08837749 35204,6917.887,95.438,540.51,538.994,0.0
54079.0,STARLINK-5175,PAYLOAD,2023-06-09 10:36:36,15.08839731,0.0001046,53.2154,162.5875,83.2505,276.8606,4.1059e-05,3.66e-06,0.0,0 STARLINK-5175,1 54079U 22136AE  23160.44208360  .00000366  00000-0  41059-4 0  9996,2 54079  53.2154 162.5875 0001046  83.2505 276.8606 15.08839731 35856,6917.881,95.438,540.47,539.023,0.0
54079.0,STARLINK-5175,PAYLOAD,2023-06-09 16:58:08,15.08834737,0.0001019,53.2149,161.3977,81.6136,278.4971,3.2148e-06,-2.37e-06,0.0,0 STARLINK-5175,1 54079U 22136AE  23160.70704835 -.00000237  00000-0  32148-5 0  9991,2 54079  53.2149 161.3977 0001019  81.6136 278.4971 15.08834737 35418,6917.896,95.438,540.466,539.057,0.0
54079.0,STARLINK-5175,PAYLOAD,2023-06-10 12:02:46,15.08833727,0.0001044,53.2148,157.8292,83.1583,276.9528,1.9665e-05,2.5e-07,0.0,0 STARLINK-5175,1 54079U 22136AE  23161.50193219  .00000025  00000-0  19665-4 0  9990,2 54079  53.2148 157.8292 0001044  83.1583 276.9528 15.08833727 35530,6917.9,95.438,540.487,539.042,0.0
54079.0,STARLINK-5175,PAYLOAD,2023-06-11 11:53:33,15.0884071,0.0001068,53.2148,153.3685,83.2086,276.9027,6.2135e-05,7.01e-06,0.0,0 STARLINK-5175,1 54079U 22136AE  23162.49552859  .00000701  00000-0  62135-4 0  9999,2 54079  53.2148 153.3685 0001068  83.2086 276.9027 15.08840710 35682,6917.878,95.438,540.482,539.004,0.0
54079.0,STARLINK-5175,PAYLOAD,2023-06-11 16:39:43,15.08840738,0.0001076,53.215,152.4765,83.9971,276.1144,6.7737e-05,7.9e-06,0.0,0 STARLINK-5175,1 54079U 22136AE  23162.69424846  .00000790  00000-0  67737-4 0  9996,2 54079  53.2150 152.4765 0001076  83.9971 276.1144 15.08840738 36192,6917.878,95.438,540.487,538.999,0.0
54079.0,STARLINK-5175,PAYLOAD,2023-06-11 23:01:15,15.08840539,0.0001107,53.2155,151.287,82.3384,277.7734,0.00010032,1.309e-05,0.0,0 STARLINK-5175,1 54079U 22136AE  23162.95920789  .00001309  00000-0  10032-3 0  9994,2 54079  53.2155 151.2870 0001107  82.3384 277.7734 15.08840539 35759,6917.879,95.438,540.51,538.978,0.0
54079.0,STARLINK-5175,PAYLOAD,2023-06-12 22:52:02,15.08838049,0.0001217,53.2155,146.827,79.6886,280.4244,2.8548e-05,1.66e-06,0.0,0 STARLINK-5175,1 54079U 22136AE  23163.95281204  .00000166  00000-0  28548-4 0  9999,2 54079  53.2155 146.8270 0001217  79.6886 280.4244 15.08838049 35908,6917.886,95.438,540.593,538.909,0.0
54079.0,STARLINK-5175,PAYLOAD,2023-06-13 05:13:35,15.0883999,0.0001213,53.2156,145.6381,78.1275,281.9853,1.7734e-05,-6e-08,0.0,0 STARLINK-5175,1 54079U 22136AE  23164.21777097 -.00000006  00000-0  17734-4 0  9998,2 54079  53.2156 145.6381 0001213  78.1275 281.9853 15.08839990 36427,6917.88,95.438,540.585,538.906,0.0
54079.0,STARLINK-5175,PAYLOAD,2023-06-13 08:24:21,15.08839643,0.0001202,53.2156,145.0435,77.9912,282.1214,1.3084e-05,-8e-07,0.0,0 STARLINK-5175,1 54079U 22136AE  23164.35025122 -.00000080  00000-0  13084-4 0  9994,2 54079  53.2156 145.0435 0001202  77.9912 282.1214 15.08839643 35961,6917.881,95.438,540.578,538.915,0.0
54079.0,STARLINK-5175,PAYLOAD,2023-06-14 09:50:31,15.08844289,0.0001275,53.2164,140.2852,88.7025,271.4113,3.7146e-05,3.03e-06,0.0,0 STARLINK-5175,1 54079U 22136AE  23165.41008540  .00000303  00000-0  37146-4 0  9999,2 54079  53.2164 140.2852 0001275  88.7025 271.4113 15.08844289 36608,6917.867,95.437,540.614,538.85,0.0
54079.0,STARLINK-5175,PAYLOAD,2023-06-14 22:33:37,15.08832876,0.0001415,53.2174,137.905,98.1193,261.9959,-6.466e-06,-3.91e-06,0.0,0 STARLINK-5175,1 54079U 22136AE  23165.94001440 -.00000391  00000-0 -64660-5 0  9990,2 54079  53.2174 137.9050 0001415  98.1193 261.9959 15.08832876 36688,6917.902,95.438,540.746,538.788,0.0
54079.0,STARLINK-5175,PAYLOAD,2023-06-15 09:41:19,15.0883651,0.0001334,53.2172,135.8238,94.7523,265.3621,2.1767e-05,5.9e-07,0.0,0 STARLINK-5175,1 54079U 22136AE  23166.40369262  .00000059  00000-0  21767-4 0  9990,2 54079  53.2172 135.8238 0001334  94.7523 265.3621 15.08836510 36278,6917.891,95.438,540.679,538.833,0.0
54079.0,STARLINK-5175,PAYLOAD,2023-06-16 01:35:10,15.08836965,0.0001234,53.2167,132.8515,98.4624,261.6508,-2.563e-05,-6.96e-06,0.0,0 STARLINK-5175,1 54079U 22136AE  23167.06609520 -.00000696  00000-0 -25630-4 0  9999,2 54079  53.2167 132.8515 0001234  98.4624 261.6508 15.08836965 36850,6917.89,95.438,540.608,538.901,0.0
54079.0,STARLINK-5175,PAYLOAD,2023-06-16 09:32:05,15.08848765,0.0001251,53.2168,131.3635,96.4537,263.6598,7.6619e-05,9.32e-06,0.0,0 STARLINK-5175,1 54079U 22136AE  23167.39728434  .00000932  00000-0  76619-4 0  9995,2 54079  53.2168 131.3635 0001251  96.4537 263.6598 15.08848765 36906,6917.854,95.437,540.584,538.853,0.0
54079.0,STARLINK-5175,PAYLOAD,2023-06-16 23:50:34,15.08831465,0.0001194,53.2164,128.6869,97.6018,262.511,1.1282e-05,-1.08e-06,0.0,0 STARLINK-5175,1 54079U 22136AE  23167.99345752 -.00000108  00000-0  11282-4 0  9990,2 54079  53.2164 128.6869 0001194  97.6018 262.5110 15.08831465 36999,6917.906,95.438,540.597,538.945,0.0
54079.0,STARLINK-5175,PAYLOAD,2023-06-17 06:12:06,15.0883887,0.0001169,53.2162,127.4992,93.8273,266.2853,7.5225e-05,9.1e-06,0.0,0 STARLINK-5175,1 54079U 22136AE  23168.25841147  .00000910  00000-0  75225-4 0  9996,2 54079  53.2162 127.4992 0001169  93.8273 266.2853 15.08838870 37032,6917.884,95.438,540.558,538.94,0.0
54079.0,STARLINK-5175,PAYLOAD,2023-06-17 14:09:03,15.08831211,0.0001204,53.2166,126.0124,95.9477,264.1653,-2.2842e-05,-6.51e-06,0.0,0 STARLINK-5175,1 54079U 22136AE  23168.58962032 -.00000651  00000-0 -22842-4 0  9990,2 54079  53.2166 126.0124 0001204  95.9477 264.1653 15.08831211 37089,6917.907,95.438,540.605,538.939,0.0
54079.0,STARLINK-5175,PAYLOAD,2023-06-18 06:02:54,15.08831395,0.0001182,53.217,123.0375,82.0608,278.0518,-2.5713e-05,-6.97e-06,0.0,0 STARLINK-5175,1 54079U 22136AE  23169.25202447 -.00000697  00000-0 -25713-4 0  9992,2 54079  53.2170 123.0375 0001182  82.0608 278.0518 15.08831395 36702,6917.907,95.438,540.589,538.954,0.0
54079.0,STARLINK-5175,PAYLOAD,2023-06-18 13:59:50,15.08839043,0.0001302,53.217,121.5523,73.0962,287.0173,-4.351e-05,-9.8e-06,0.0,0 STARLINK-5175,1 54079U 22136AE  23169.58322157 -.00000980  00000-0 -43510-4 0  9999,2 54079  53.2170 121.5523 0001302  73.0962 287.0173 15.08839043 37231,6917.883,95.438,540.649,538.848,0.0
